[{"OBJECT_NAME":"STARLINK-34862","OBJECT_ID":"2025-175G","EPOCH":"2026-03-18T21:29:30.858720","MEAN_MOTION":15.05656,"ECCENTRICITY":0.00027124,"INCLINATION":97.6025,"RA_OF_ASC_NODE":311.7,"ARG_OF_PERICENTER":86.5508,"MEAN_ANOMALY":273.6029,"EPHEMERIS_TYPE":0,"CLASSIFICATION_TYPE":"U","NORAD_CAT_ID":65180,"ELEMENT_SET_NO":999,"REV_AT_EPOCH":3402,"BSTAR":0.00026981403,"MEAN_MOTION_DOT":3.835e-5,"MEAN_MOTION_DDOT":0},{"OBJECT_NAME":"STARLINK-34942","OBJECT_ID":"2025-175H","EPOCH":"2026-03-18T21:37:30.558432","MEAN_MOTION":15.05653466,"ECCENTRICITY":0.00030871,"INCLINATION":97.6045,"RA_OF_ASC_NODE":311.6927,"ARG_OF_PERICENTER":84.4633,"MEAN_ANOMALY":275.6946,"EPHEMERIS_TYPE":0,"CLASSIFICATION_TYPE":"U","NORAD_CAT_ID":65181,"ELEMENT_SET_NO":999,"REV_AT_EPOCH":3399,"BSTAR":0.00036081309,"MEAN_MOTION_DOT":5.15e-5,"MEAN_MOTION_DDOT":0},{"OBJECT_NAME":"STARLINK-34944","OBJECT_ID":"2025-175J","EPOCH":"2026-03-18T21:25:31.621440","MEAN_MOTION":15.05655618,"ECCENTRICITY":0.00025174,"INCLINATION":97.6027,"RA_OF_ASC_NODE":311.7037,"ARG_OF_PERICENTER":86.7391,"MEAN_ANOMALY":273.4124,"EPHEMERIS_TYPE":0,"CLASSIFICATION_TYPE":"U","NORAD_CAT_ID":65182,"ELEMENT_SET_NO":999,"REV_AT_EPOCH":3402,"BSTAR":0.00025062629,"MEAN_MOTION_DOT":3.558e-5,"MEAN_MOTION_DDOT":0},{"OBJECT_NAME":"STARLINK-34939","OBJECT_ID":"2025-175K","EPOCH":"2026-03-18T21:21:34.144992","MEAN_MOTION":15.05641762,"ECCENTRICITY":9.418e-5,"INCLINATION":97.5947,"RA_OF_ASC_NODE":311.7023,"ARG_OF_PERICENTER":114.0597,"MEAN_ANOMALY":246.0728,"EPHEMERIS_TYPE":0,"CLASSIFICATION_TYPE":"U","NORAD_CAT_ID":65183,"ELEMENT_SET_NO":999,"REV_AT_EPOCH":3399,"BSTAR":0.00028678542,"MEAN_MOTION_DOT":4.079e-5,"MEAN_MOTION_DDOT":0},{"OBJECT_NAME":"STARLINK-34947","OBJECT_ID":"2025-175L","EPOCH":"2026-03-18T21:17:33.200448","MEAN_MOTION":15.05655974,"ECCENTRICITY":0.00021036,"INCLINATION":97.6014,"RA_OF_ASC_NODE":311.7103,"ARG_OF_PERICENTER":66.3132,"MEAN_ANOMALY":293.8315,"EPHEMERIS_TYPE":0,"CLASSIFICATION_TYPE":"U","NORAD_CAT_ID":65184,"ELEMENT_SET_NO":999,"REV_AT_EPOCH":3402,"BSTAR":0.00029197546,"MEAN_MOTION_DOT":4.155e-5,"MEAN_MOTION_DDOT":0},{"OBJECT_NAME":"STARLINK-34945","OBJECT_ID":"2025-175M","EPOCH":"2026-03-18T21:13:33.894048","MEAN_MOTION":15.05653142,"ECCENTRICITY":0.0002336,"INCLINATION":97.601,"RA_OF_ASC_NODE":311.7136,"ARG_OF_PERICENTER":81.8305,"MEAN_ANOMALY":278.3187,"EPHEMERIS_TYPE":0,"CLASSIFICATION_TYPE":"U","NORAD_CAT_ID":65185,"ELEMENT_SET_NO":999,"REV_AT_EPOCH":3402,"BSTAR":0.00013924698,"MEAN_MOTION_DOT":1.949e-5,"MEAN_MOTION_DDOT":0},{"OBJECT_NAME":"STARLINK-34965","OBJECT_ID":"2025-175N","EPOCH":"2026-03-18T21:05:35.470464","MEAN_MOTION":15.05656922,"ECCENTRICITY":0.00023196,"INCLINATION":97.6014,"RA_OF_ASC_NODE":311.7211,"ARG_OF_PERICENTER":75.8699,"MEAN_ANOMALY":284.2785,"EPHEMERIS_TYPE":0,"CLASSIFICATION_TYPE":"U","NORAD_CAT_ID":65186,"ELEMENT_SET_NO":999,"REV_AT_EPOCH":3402,"BSTAR":0.00031109788,"MEAN_MOTION_DOT":4.432e-5,"MEAN_MOTION_DDOT":0},{"OBJECT_NAME":"STARLINK-34915","OBJECT_ID":"2025-175P","EPOCH":"2026-03-18T21:09:34.700832","MEAN_MOTION":15.0565446,"ECCENTRICITY":0.00022371,"INCLINATION":97.6014,"RA_OF_ASC_NODE":311.7175,"ARG_OF_PERICENTER":84.0948,"MEAN_ANOMALY":276.0534,"EPHEMERIS_TYPE":0,"CLASSIFICATION_TYPE":"U","NORAD_CAT_ID":65187,"ELEMENT_SET_NO":999,"REV_AT_EPOCH":3402,"BSTAR":0.00025010833,"MEAN_MOTION_DOT":3.55e-5,"MEAN_MOTION_DDOT":0},{"OBJECT_NAME":"STARLINK-34972","OBJECT_ID":"2025-175Q","EPOCH":"2026-03-18T03:28:54.290784","MEAN_MOTION":15.05654141,"ECCENTRICITY":0.0001555,"INCLINATION":97.602,"RA_OF_ASC_NODE":311.0049,"ARG_OF_PERICENTER":80.4507,"MEAN_ANOMALY":279.6895,"EPHEMERIS_TYPE":0,"CLASSIFICATION_TYPE":"U","NORAD_CAT_ID":65188,"ELEMENT_SET_NO":999,"REV_AT_EPOCH":3388,"BSTAR":0.00028243,"MEAN_MOTION_DOT":4.017e-5,"MEAN_MOTION_DDOT":0},{"OBJECT_NAME":"STARLINK-34866","OBJECT_ID":"2025-175R","EPOCH":"2026-03-18T09:47:43.024704","MEAN_MOTION":15.05655971,"ECCENTRICITY":0.00021763,"INCLINATION":97.6022,"RA_OF_ASC_NODE":311.2709,"ARG_OF_PERICENTER":75.5759,"MEAN_ANOMALY":284.5709,"EPHEMERIS_TYPE":0,"CLASSIFICATION_TYPE":"U","NORAD_CAT_ID":65189,"ELEMENT_SET_NO":999,"REV_AT_EPOCH":3395,"BSTAR":0.00029947764,"MEAN_MOTION_DOT":4.264e-5,"MEAN_MOTION_DDOT":0},{"OBJECT_NAME":"STARLINK-34917","OBJECT_ID":"2025-175S","EPOCH":"2026-03-18T20:00:01.999872","MEAN_MOTION":15.05664648,"ECCENTRICITY":0.00015747,"INCLINATION":97.6025,"RA_OF_ASC_NODE":311.6965,"ARG_OF_PERICENTER":67.2765,"MEAN_ANOMALY":91.2489,"EPHEMERIS_TYPE":0,"CLASSIFICATION_TYPE":"U","NORAD_CAT_ID":65190,"ELEMENT_SET_NO":999,"REV_AT_EPOCH":577,"BSTAR":-0.0029708121,"MEAN_MOTION_DOT":-0.00042688,"MEAN_MOTION_DDOT":0},{"OBJECT_NAME":"STARLINK-34948","OBJECT_ID":"2025-175T","EPOCH":"2026-03-18T14:26:50.564832","MEAN_MOTION":15.05652626,"ECCENTRICITY":0.000217,"INCLINATION":97.6017,"RA_OF_ASC_NODE":311.4711,"ARG_OF_PERICENTER":81.6762,"MEAN_ANOMALY":278.471,"EPHEMERIS_TYPE":0,"CLASSIFICATION_TYPE":"U","NORAD_CAT_ID":65191,"ELEMENT_SET_NO":999,"REV_AT_EPOCH":3398,"BSTAR":0.00017658,"MEAN_MOTION_DOT":2.488e-5,"MEAN_MOTION_DDOT":0},{"OBJECT_NAME":"STARLINK-34955","OBJECT_ID":"2025-175U","EPOCH":"2026-03-18T22:21:21.212064","MEAN_MOTION":15.05655574,"ECCENTRICITY":0.00017124,"INCLINATION":97.6023,"RA_OF_ASC_NODE":311.8066,"ARG_OF_PERICENTER":72.4422,"MEAN_ANOMALY":287.6992,"EPHEMERIS_TYPE":0,"CLASSIFICATION_TYPE":"U","NORAD_CAT_ID":65192,"ELEMENT_SET_NO":999,"REV_AT_EPOCH":3400,"BSTAR":0.00019590032,"MEAN_MOTION_DOT":2.767e-5,"MEAN_MOTION_DDOT":0},{"OBJECT_NAME":"STARLINK-34950","OBJECT_ID":"2025-175V","EPOCH":"2026-03-18T22:17:22.036992","MEAN_MOTION":15.05655797,"ECCENTRICITY":0.0001571,"INCLINATION":97.6024,"RA_OF_ASC_NODE":311.8107,"ARG_OF_PERICENTER":90.6775,"MEAN_ANOMALY":269.4632,"EPHEMERIS_TYPE":0,"CLASSIFICATION_TYPE":"U","NORAD_CAT_ID":65193,"ELEMENT_SET_NO":999,"REV_AT_EPOCH":3400,"BSTAR":0.00021050341,"MEAN_MOTION_DOT":2.978e-5,"MEAN_MOTION_DDOT":0},{"OBJECT_NAME":"STARLINK-34926","OBJECT_ID":"2025-175W","EPOCH":"2026-03-18T22:01:25.557888","MEAN_MOTION":15.05652876,"ECCENTRICITY":0.00028503,"INCLINATION":97.6032,"RA_OF_ASC_NODE":311.8259,"ARG_OF_PERICENTER":82.1878,"MEAN_ANOMALY":277.9673,"EPHEMERIS_TYPE":0,"CLASSIFICATION_TYPE":"U","NORAD_CAT_ID":65194,"ELEMENT_SET_NO":999,"REV_AT_EPOCH":3400,"BSTAR":0.00019578331,"MEAN_MOTION_DOT":2.766e-5,"MEAN_MOTION_DDOT":0},{"OBJECT_NAME":"STARLINK-34928","OBJECT_ID":"2025-175X","EPOCH":"2026-03-18T22:05:24.530784","MEAN_MOTION":15.05655679,"ECCENTRICITY":0.00017655,"INCLINATION":97.6039,"RA_OF_ASC_NODE":311.8222,"ARG_OF_PERICENTER":71.5277,"MEAN_ANOMALY":288.6142,"EPHEMERIS_TYPE":0,"CLASSIFICATION_TYPE":"U","NORAD_CAT_ID":65195,"ELEMENT_SET_NO":999,"REV_AT_EPOCH":3403,"BSTAR":0.00026917008,"MEAN_MOTION_DOT":3.826e-5,"MEAN_MOTION_DDOT":0}]
