STARLINK-34862          
1 65180U 25175G   26077.89549605  .00003835  00000+0  26981-3 0  9995
2 65180  97.6025 311.7000 0002712  86.5508 273.6029 15.05656000 34023
STARLINK-34942          
1 65181U 25175H   26077.90104813  .00005150  00000+0  36081-3 0  9990
2 65181  97.6045 311.6927 0003087  84.4633 275.6946 15.05653466 33993
STARLINK-34944          
1 65182U 25175J   26077.89272710  .00003558  00000+0  25063-3 0  9999
2 65182  97.6027 311.7037 0002517  86.7391 273.4124 15.05655618 34020
STARLINK-34939          
1 65183U 25175K   26077.88997853  .00004079  00000+0  28679-3 0  9996
2 65183  97.5947 311.7023 0000941 114.0597 246.0728 15.05641762 33994
STARLINK-34947          
1 65184U 25175L   26077.88718982  .00004155  00000+0  29198-3 0  9993
2 65184  97.6014 311.7103 0002103  66.3132 293.8315 15.05655974 34023
STARLINK-34945          
1 65185U 25175M   26077.88442007  .00001949  00000+0  13925-3 0  9995
2 65185  97.6010 311.7136 0002336  81.8305 278.3187 15.05653142 34028
STARLINK-34965          
1 65186U 25175N   26077.87888276  .00004432  00000+0  31110-3 0  9993
2 65186  97.6014 311.7211 0002319  75.8699 284.2785 15.05656922 34026
STARLINK-34915          
1 65187U 25175P   26077.88165163  .00003550  00000+0  25011-3 0  9991
2 65187  97.6014 311.7175 0002237  84.0948 276.0534 15.05654460 34020
STARLINK-34972          
1 65188U 25175Q   26077.14507281  .00004017  00000+0  28243-3 0  9991
2 65188  97.6020 311.0049 0001555  80.4507 279.6895 15.05654141 33882
STARLINK-34866          
1 65189U 25175R   26077.40813686  .00004264  00000+0  29948-3 0  9997
2 65189  97.6022 311.2709 0002176  75.5759 284.5709 15.05655971 33953
STARLINK-34917          
1 65190U 25175S   26077.83335648 -.00042688  00000+0 -29708-2 0  9990
2 65190  97.6025 311.6965 0001574  67.2765  91.2489 15.05664648  5770
STARLINK-34948          
1 65191U 25175T   26077.60197413  .00002488  00000+0  17658-3 0  9996
2 65191  97.6017 311.4711 0002170  81.6762 278.4710 15.05652626 33982
STARLINK-34955          
1 65192U 25175U   26077.93149551  .00002767  00000+0  19590-3 0  9990
2 65192  97.6023 311.8066 0001712  72.4422 287.6992 15.05655574 34002
STARLINK-34950          
1 65193U 25175V   26077.92872728  .00002978  00000+0  21050-3 0  9997
2 65193  97.6024 311.8107 0001571  90.6775 269.4632 15.05655797 34002
STARLINK-34926          
1 65194U 25175W   26077.91765692  .00002766  00000+0  19578-3 0  9995
2 65194  97.6032 311.8259 0002850  82.1878 277.9673 15.05652876 34005
STARLINK-34928          
1 65195U 25175X   26077.92042281  .00003826  00000+0  26917-3 0  9992
2 65195  97.6039 311.8222 0001765  71.5277 288.6142 15.05655679 34039
